CSS (TIANHE)            
1 48274U 21035A   23222.61233766 -.00023692  00000+0 -27644-3 0  9990
2 48274  41.4734 185.1118 0007406 120.7595  41.3550 15.60438092130337
